{
  "type": "FeatureCollection",
  "features": [
    {
      "type": "Feature",
      "properties": {
        "norad_id": 24946,
        "name": "IRIDIUM 33",
        "group": "iridium-33-debris",
        "lat": 54.082154473984666,
        "lon": -119.26670856553322,
        "alt_km": 766.7012852864073,
        "timestamp": "2025-12-18T15:47:11.609547+00:00",
        "meta_object_name": "IRIDIUM 33",
        "meta_object_id": "1997-051C",
        "meta_epoch": "2025-12-18T06:50:06.168768",
        "meta_mean_motion": 14.35041379,
        "meta_eccentricity": 0.00076997,
        "meta_inclination": 86.3868,
        "meta_ra_of_asc_node": 65.8942,
        "meta_arg_of_pericenter": 181.3776,
        "meta_mean_anomaly": 178.74,
        "meta_ephemeris_type": 0,
        "meta_classification_type": "U",
        "meta_norad_cat_id": 24946,
        "meta_element_set_no": 999,
        "meta_rev_at_epoch": 47914,
        "meta_bstar": 9.6754655e-05,
        "meta_mean_motion_dot": 2.95e-06,
        "meta_mean_motion_ddot": 0,
        "tle_line1": "1 24946U 97051C   25352.28479362  .00000295  00000+0  96755-4 0  9996",
        "tle_line2": "2 24946  86.3868  65.8942 0007699 181.3776 178.7400 14.35041379479143"
      },
      "geometry": {
        "type": "Point",
        "coordinates": [
          -119.26670856553322,
          54.082154473984666
        ]
      }
    },
    {
      "type": "Feature",
      "properties": {
        "norad_id": 33773,
        "name": "IRIDIUM 33 DEB",
        "group": "iridium-33-debris",
        "lat": -77.35381953521804,
        "lon": -105.62548486427383,
        "alt_km": 760.9295692935939,
        "timestamp": "2025-12-18T15:47:11.609593+00:00",
        "meta_object_name": "IRIDIUM 33 DEB",
        "meta_object_id": "1997-051L",
        "meta_epoch": "2025-12-18T04:36:45.675648",
        "meta_mean_motion": 14.43268549,
        "meta_eccentricity": 0.00129399,
        "meta_inclination": 86.4005,
        "meta_ra_of_asc_node": 58.279,
        "meta_arg_of_pericenter": 130.4918,
        "meta_mean_anomaly": 229.7413,
        "meta_ephemeris_type": 0,
        "meta_classification_type": "U",
        "meta_norad_cat_id": 33773,
        "meta_element_set_no": 999,
        "meta_rev_at_epoch": 88426,
        "meta_bstar": 0.00023660317,
        "meta_mean_motion_dot": 8.17e-06,
        "meta_mean_motion_ddot": 0,
        "tle_line1": "1 33773U 97051L   25352.19219532  .00000817  00000+0  23660-3 0  9999",
        "tle_line2": "2 33773  86.4005  58.2790 0012939 130.4918 229.7413 14.43268549884261"
      },
      "geometry": {
        "type": "Point",
        "coordinates": [
          -105.62548486427383,
          -77.35381953521804
        ]
      }
    },
    {
      "type": "Feature",
      "properties": {
        "norad_id": 33775,
        "name": "IRIDIUM 33 DEB",
        "group": "iridium-33-debris",
        "lat": -56.66534577019755,
        "lon": 41.47813672971618,
        "alt_km": 771.0668802992541,
        "timestamp": "2025-12-18T15:47:11.609610+00:00",
        "meta_object_name": "IRIDIUM 33 DEB",
        "meta_object_id": "1997-051N",
        "meta_epoch": "2025-12-18T06:22:37.580736",
        "meta_mean_motion": 14.41480224,
        "meta_eccentricity": 0.00148381,
        "meta_inclination": 86.3632,
        "meta_ra_of_asc_node": 47.1944,
        "meta_arg_of_pericenter": 137.9325,
        "meta_mean_anomaly": 292.0202,
        "meta_ephemeris_type": 0,
        "meta_classification_type": "U",
        "meta_norad_cat_id": 33775,
        "meta_element_set_no": 999,
        "meta_rev_at_epoch": 88220,
        "meta_bstar": 0.00025383462,
        "meta_mean_motion_dot": 8.44e-06,
        "meta_mean_motion_ddot": 0,
        "tle_line1": "1 33775U 97051N   25352.26571274  .00000844  00000+0  25383-3 0  9997",
        "tle_line2": "2 33775  86.3632  47.1944 0014838 137.9325 292.0202 14.41480224882205"
      },
      "geometry": {
        "type": "Point",
        "coordinates": [
          41.47813672971618,
          -56.66534577019755
        ]
      }
    },
    {
      "type": "Feature",
      "properties": {
        "norad_id": 33776,
        "name": "IRIDIUM 33 DEB",
        "group": "iridium-33-debris",
        "lat": 75.6251280824757,
        "lon": -115.91439034521038,
        "alt_km": 753.0758847942443,
        "timestamp": "2025-12-18T15:47:11.609624+00:00",
        "meta_object_name": "IRIDIUM 33 DEB",
        "meta_object_id": "1997-051P",
        "meta_epoch": "2025-12-18T07:14:00.599712",
        "meta_mean_motion": 14.38244956,
        "meta_eccentricity": 0.00149937,
        "meta_inclination": 86.4036,
        "meta_ra_of_asc_node": 78.4405,
        "meta_arg_of_pericenter": 172.3742,
        "meta_mean_anomaly": 247.646,
        "meta_ephemeris_type": 0,
        "meta_classification_type": "U",
        "meta_norad_cat_id": 33776,
        "meta_element_set_no": 999,
        "meta_rev_at_epoch": 88162,
        "meta_bstar": 0.00022721058,
        "meta_mean_motion_dot": 7.11e-06,
        "meta_mean_motion_ddot": 0,
        "tle_line1": "1 33776U 97051P   25352.30139583  .00000711  00000+0  22721-3 0  9992",
        "tle_line2": "2 33776  86.4036  78.4405 0014993 172.3742 247.6460 14.38244956881625"
      },
      "geometry": {
        "type": "Point",
        "coordinates": [
          -115.91439034521038,
          75.6251280824757
        ]
      }
    },
    {
      "type": "Feature",
      "properties": {
        "norad_id": 33777,
        "name": "IRIDIUM 33 DEB",
        "group": "iridium-33-debris",
        "lat": -81.13038293805646,
        "lon": -123.42373693293243,
        "alt_km": 711.6114759295269,
        "timestamp": "2025-12-18T15:47:11.609637+00:00",
        "meta_object_name": "IRIDIUM 33 DEB",
        "meta_object_id": "1997-051Q",
        "meta_epoch": "2025-12-18T04:41:17.174688",
        "meta_mean_motion": 14.55652689,
        "meta_eccentricity": 0.00055596,
        "meta_inclination": 86.3781,
        "meta_ra_of_asc_node": 32.8305,
        "meta_arg_of_pericenter": 224.681,
        "meta_mean_anomaly": 135.395,
        "meta_ephemeris_type": 0,
        "meta_classification_type": "U",
        "meta_norad_cat_id": 33777,
        "meta_element_set_no": 999,
        "meta_rev_at_epoch": 88613,
        "meta_bstar": 0.00065915715,
        "meta_mean_motion_dot": 2.898e-05,
        "meta_mean_motion_ddot": 0,
        "tle_line1": "1 33777U 97051Q   25352.19533767  .00002898  00000+0  65916-3 0  9993",
        "tle_line2": "2 33777  86.3781  32.8305 0005559 224.6810 135.3950 14.55652689886133"
      },
      "geometry": {
        "type": "Point",
        "coordinates": [
          -123.42373693293243,
          -81.13038293805646
        ]
      }
    },
    {
      "type": "Feature",
      "properties": {
        "norad_id": 33850,
        "name": "IRIDIUM 33 DEB",
        "group": "iridium-33-debris",
        "lat": -61.27520426662363,
        "lon": 20.930322966615662,
        "alt_km": 766.9237466575369,
        "timestamp": "2025-12-18T15:47:11.609650+00:00",
        "meta_object_name": "IRIDIUM 33 DEB",
        "meta_object_id": "1997-051T",
        "meta_epoch": "2025-12-18T04:44:45.148992",
        "meta_mean_motion": 14.42158096,
        "meta_eccentricity": 0.00127838,
        "meta_inclination": 86.3413,
        "meta_ra_of_asc_node": 27.8327,
        "meta_arg_of_pericenter": 144.545,
        "meta_mean_anomaly": 287.1244,
        "meta_ephemeris_type": 0,
        "meta_classification_type": "U",
        "meta_norad_cat_id": 33850,
        "meta_element_set_no": 999,
        "meta_rev_at_epoch": 88231,
        "meta_bstar": 0.00027234125,
        "meta_mean_motion_dot": 9.16e-06,
        "meta_mean_motion_ddot": 0,
        "tle_line1": "1 33850U 97051T   25352.19774478  .00000916  00000+0  27234-3 0  9991",
        "tle_line2": "2 33850  86.3413  27.8327 0012783 144.5450 287.1244 14.42158096882319"
      },
      "geometry": {
        "type": "Point",
        "coordinates": [
          20.930322966615662,
          -61.27520426662363
        ]
      }
    },
    {
      "type": "Feature",
      "properties": {
        "norad_id": 33853,
        "name": "IRIDIUM 33 DEB",
        "group": "iridium-33-debris",
        "lat": 56.81494773054835,
        "lon": 161.07466538928765,
        "alt_km": 900.6018479050099,
        "timestamp": "2025-12-18T15:47:11.609663+00:00",
        "meta_object_name": "IRIDIUM 33 DEB",
        "meta_object_id": "1997-051W",
        "meta_epoch": "2025-12-17T23:59:57.054624",
        "meta_mean_motion": 13.9909182,
        "meta_eccentricity": 0.0207121,
        "meta_inclination": 86,
        "meta_ra_of_asc_node": 347.5046,
        "meta_arg_of_pericenter": 219.5564,
        "meta_mean_anomaly": 194.5399,
        "meta_ephemeris_type": 0,
        "meta_classification_type": "U",
        "meta_norad_cat_id": 33853,
        "meta_element_set_no": 999,
        "meta_rev_at_epoch": 85419,
        "meta_bstar": 0.0013818561,
        "meta_mean_motion_dot": 2.42e-05,
        "meta_mean_motion_ddot": 0,
        "tle_line1": "1 33853U 97051W   25351.99996591  .00002420  00000+0  13819-2 0  9998",
        "tle_line2": "2 33853  86.0000 347.5046 0207121 219.5564 194.5399 13.99091820854191"
      },
      "geometry": {
        "type": "Point",
        "coordinates": [
          161.07466538928765,
          56.81494773054835
        ]
      }
    }
  ]
}